{
    "links": {
        "self": "http://www.neowsapp.com/rest/v1/neo/3606223?api_key=iIulBulltgU6a56xZRHN4H3l9WmuAYTsLGpBGhQ2"
    },
    "id": "3606223",
    "neo_reference_id": "3606223",
    "name": "(2012 NQ)",
    "designation": "2012 NQ",
    "nasa_jpl_url": "http://ssd.jpl.nasa.gov/sbdb.cgi?sstr=3606223",
    "absolute_magnitude_h": 20.2,
    "estimated_diameter": {
        "kilometers": {
            "estimated_diameter_min": 0.2424124811,
            "estimated_diameter_max": 0.5420507863
        },
        "meters": {
            "estimated_diameter_min": 242.4124811008,
            "estimated_diameter_max": 542.0507863358
        },
        "miles": {
            "estimated_diameter_min": 0.1506280858,
            "estimated_diameter_max": 0.3368146392
        },
        "feet": {
            "estimated_diameter_min": 795.3165644948,
            "estimated_diameter_max": 1778.3819018419
        }
    },
    "is_potentially_hazardous_asteroid": false,
    "close_approach_data": [
        {
            "close_approach_date": "2012-07-28",
            "close_approach_date_full": "2012-Jul-28 16:12",
            "epoch_date_close_approach": 1343491920000,
            "relative_velocity": {
                "kilometers_per_second": "20.1716896305",
                "kilometers_per_hour": "72618.0826697208",
                "miles_per_hour": "45122.0525344162"
            },
            "miss_distance": {
                "astronomical": "0.2075176715",
                "lunar": "80.7243742135",
                "kilometers": "31044201.643759705",
                "miles": "19289972.413525729"
            },
            "orbiting_body": "Earth"
        }
    ],
    "orbital_data": {
        "orbit_id": "22",
        "orbit_determination_date": "2017-04-06 08:49:25",
        "first_observation_date": "2012-07-14",
        "last_observation_date": "2012-08-02",
        "data_arc_in_days": 19,
        "observations_used": 184,
        "orbit_uncertainty": "8",
        "minimum_orbit_intersection": ".141633",
        "jupiter_tisserand_invariant": "3.538",
        "epoch_osculation": "2456128.5",
        "eccentricity": ".7582257196505905",
        "semi_major_axis": "1.878316405004856",
        "inclination": "11.45179830318935",
        "ascending_node_longitude": "255.0638203342756",
        "orbital_period": "940.2677795763497",
        "perihelion_distance": ".454128597088539",
        "perihelion_argument": "151.0738575585318",
        "aphelion_distance": "3.302504212921172",
        "perihelion_time": "2456186.750970124194",
        "mean_anomaly": "337.6974711883052",
        "mean_motion": ".3828696546022271",
        "equinox": "J2000",
        "orbit_class": {
            "orbit_class_type": "APO",
            "orbit_class_description": "Near-Earth asteroid orbits which cross the Earth’s orbit similar to that of 1862 Apollo",
            "orbit_class_range": "a (semi-major axis) > 1.0 AU; q (perihelion) < 1.017 AU"
        }
    },
    "is_sentry_object": false
}